{
  "type": "FeatureCollection",
  "features": [
    {
      "type": "Feature",
      "properties": {
        "norad_id": 66941,
        "name": "STARLINK-36088",
        "group": "last-30-days",
        "lat": -15.975342974963434,
        "lon": 8.43514460737602,
        "alt_km": 326.2455191148247,
        "timestamp": "2025-12-18T14:52:06.783195+00:00",
        "meta_object_name": "STARLINK-36088",
        "meta_object_id": "2025-286S",
        "meta_epoch": "2025-12-18T06:00:02.999808",
        "meta_mean_motion": 15.83675247,
        "meta_eccentricity": 8.044e-05,
        "meta_inclination": 53.1558,
        "meta_ra_of_asc_node": 22.6897,
        "meta_arg_of_pericenter": 87.1402,
        "meta_mean_anomaly": 305.8553,
        "meta_ephemeris_type": 0,
        "meta_classification_type": "U",
        "meta_norad_cat_id": 66941,
        "meta_element_set_no": 999,
        "meta_rev_at_epoch": 287,
        "meta_bstar": -0.0071739657,
        "meta_mean_motion_dot": -0.01434542,
        "meta_mean_motion_ddot": 0,
        "tle_line1": "1 66941U 25286S   25352.25003472 -.01434542  00000+0 -71740-2 0  9994",
        "tle_line2": "2 66941  53.1558  22.6897 0000804  87.1402 305.8553 15.83675247  2877"
      },
      "geometry": {
        "type": "Point",
        "coordinates": [
          8.43514460737602,
          -15.975342974963434
        ]
      }
    },
    {
      "type": "Feature",
      "properties": {
        "norad_id": 66942,
        "name": "STARLINK-36100",
        "group": "last-30-days",
        "lat": -10.907893568106795,
        "lon": 12.509239833963655,
        "alt_km": 325.3774146612204,
        "timestamp": "2025-12-18T14:52:06.783205+00:00",
        "meta_object_name": "STARLINK-36100",
        "meta_object_id": "2025-286T",
        "meta_epoch": "2025-12-18T06:00:02.999808",
        "meta_mean_motion": 15.83569774,
        "meta_eccentricity": 7.12e-05,
        "meta_inclination": 53.1558,
        "meta_ra_of_asc_node": 22.6763,
        "meta_arg_of_pericenter": 47.0431,
        "meta_mean_anomaly": 352.4691,
        "meta_ephemeris_type": 0,
        "meta_classification_type": "U",
        "meta_norad_cat_id": 66942,
        "meta_element_set_no": 999,
        "meta_rev_at_epoch": 280,
        "meta_bstar": -0.0066119878,
        "meta_mean_motion_dot": -0.01303861,
        "meta_mean_motion_ddot": 0,
        "tle_line1": "1 66942U 25286T   25352.25003472 -.01303861  00000+0 -66120-2 0  9990",
        "tle_line2": "2 66942  53.1558  22.6763 0000712  47.0431 352.4691 15.83569774  2806"
      },
      "geometry": {
        "type": "Point",
        "coordinates": [
          12.509239833963655,
          -10.907893568106795
        ]
      }
    },
    {
      "type": "Feature",
      "properties": {
        "norad_id": 66943,
        "name": "STARLINK-36109",
        "group": "last-30-days",
        "lat": -8.977855070609067,
        "lon": 14.008744461702772,
        "alt_km": 325.4482626125564,
        "timestamp": "2025-12-18T14:52:06.783218+00:00",
        "meta_object_name": "STARLINK-36109",
        "meta_object_id": "2025-286U",
        "meta_epoch": "2025-12-18T06:00:02.999808",
        "meta_mean_motion": 15.83687183,
        "meta_eccentricity": 7.226e-05,
        "meta_inclination": 53.1554,
        "meta_ra_of_asc_node": 22.6711,
        "meta_arg_of_pericenter": 87.2831,
        "meta_mean_anomaly": 314.5849,
        "meta_ephemeris_type": 0,
        "meta_classification_type": "U",
        "meta_norad_cat_id": 66943,
        "meta_element_set_no": 999,
        "meta_rev_at_epoch": 280,
        "meta_bstar": -0.0072908953,
        "meta_mean_motion_dot": -0.01455953,
        "meta_mean_motion_ddot": 0,
        "tle_line1": "1 66943U 25286U   25352.25003472 -.01455953  00000+0 -72909-2 0  9993",
        "tle_line2": "2 66943  53.1554  22.6711 0000722  87.2831 314.5849 15.83687183  2806"
      },
      "geometry": {
        "type": "Point",
        "coordinates": [
          14.008744461702772,
          -8.977855070609067
        ]
      }
    },
    {
      "type": "Feature",
      "properties": {
        "norad_id": 66944,
        "name": "STARLINK-36112",
        "group": "last-30-days",
        "lat": -7.320301673387522,
        "lon": 15.280386317525684,
        "alt_km": 325.2532923335302,
        "timestamp": "2025-12-18T14:52:06.783229+00:00",
        "meta_object_name": "STARLINK-36112",
        "meta_object_id": "2025-286V",
        "meta_epoch": "2025-12-18T06:00:02.999808",
        "meta_mean_motion": 15.83703201,
        "meta_eccentricity": 9.277e-05,
        "meta_inclination": 53.1556,
        "meta_ra_of_asc_node": 22.6668,
        "meta_arg_of_pericenter": 88.2214,
        "meta_mean_anomaly": 315.7184,
        "meta_ephemeris_type": 0,
        "meta_classification_type": "U",
        "meta_norad_cat_id": 66944,
        "meta_element_set_no": 999,
        "meta_rev_at_epoch": 287,
        "meta_bstar": -0.0073456373,
        "meta_mean_motion_dot": -0.01466762,
        "meta_mean_motion_ddot": 0,
        "tle_line1": "1 66944U 25286V   25352.25003472 -.01466762  00000+0 -73456-2 0  9992",
        "tle_line2": "2 66944  53.1556  22.6668 0000927  88.2214 315.7184 15.83703201  2875"
      },
      "geometry": {
        "type": "Point",
        "coordinates": [
          15.280386317525684,
          -7.320301673387522
        ]
      }
    },
    {
      "type": "Feature",
      "properties": {
        "norad_id": 66945,
        "name": "STARLINK-36110",
        "group": "last-30-days",
        "lat": -5.407688809966968,
        "lon": 16.73246864737045,
        "alt_km": 325.04180853147045,
        "timestamp": "2025-12-18T14:52:06.783238+00:00",
        "meta_object_name": "STARLINK-36110",
        "meta_object_id": "2025-286W",
        "meta_epoch": "2025-12-18T06:00:02.999808",
        "meta_mean_motion": 15.83696187,
        "meta_eccentricity": 8.359e-05,
        "meta_inclination": 53.1553,
        "meta_ra_of_asc_node": 22.6616,
        "meta_arg_of_pericenter": 89.3814,
        "meta_mean_anomaly": 316.9694,
        "meta_ephemeris_type": 0,
        "meta_classification_type": "U",
        "meta_norad_cat_id": 66945,
        "meta_element_set_no": 999,
        "meta_rev_at_epoch": 287,
        "meta_bstar": -0.007380755,
        "meta_mean_motion_dot": -0.01472466,
        "meta_mean_motion_ddot": 0,
        "tle_line1": "1 66945U 25286W   25352.25003472 -.01472466  00000+0 -73808-2 0  9992",
        "tle_line2": "2 66945  53.1553  22.6616 0000835  89.3814 316.9694 15.83696187  2875"
      },
      "geometry": {
        "type": "Point",
        "coordinates": [
          16.73246864737045,
          -5.407688809966968
        ]
      }
    },
    {
      "type": "Feature",
      "properties": {
        "norad_id": 66946,
        "name": "STARLINK-36115",
        "group": "last-30-days",
        "lat": -3.6678778149670537,
        "lon": 18.043275914314727,
        "alt_km": 324.7941945073335,
        "timestamp": "2025-12-18T14:52:06.783249+00:00",
        "meta_object_name": "STARLINK-36115",
        "meta_object_id": "2025-286X",
        "meta_epoch": "2025-12-18T06:00:02.999808",
        "meta_mean_motion": 15.83704453,
        "meta_eccentricity": 8.765e-05,
        "meta_inclination": 53.1554,
        "meta_ra_of_asc_node": 22.6571,
        "meta_arg_of_pericenter": 87.8206,
        "meta_mean_anomaly": 320.7035,
        "meta_ephemeris_type": 0,
        "meta_classification_type": "U",
        "meta_norad_cat_id": 66946,
        "meta_element_set_no": 999,
        "meta_rev_at_epoch": 287,
        "meta_bstar": -0.0074271324,
        "meta_mean_motion_dot": -0.01481191,
        "meta_mean_motion_ddot": 0,
        "tle_line1": "1 66946U 25286X   25352.25003472 -.01481191  00000+0 -74271-2 0  9993",
        "tle_line2": "2 66946  53.1554  22.6571 0000876  87.8206 320.7035 15.83704453  2878"
      },
      "geometry": {
        "type": "Point",
        "coordinates": [
          18.043275914314727,
          -3.6678778149670537
        ]
      }
    },
    {
      "type": "Feature",
      "properties": {
        "norad_id": 66947,
        "name": "STARLINK-36089",
        "group": "last-30-days",
        "lat": -0.020931855638713217,
        "lon": 20.77331553827838,
        "alt_km": 324.29208144782933,
        "timestamp": "2025-12-18T14:52:06.783258+00:00",
        "meta_object_name": "STARLINK-36089",
        "meta_object_id": "2025-286Y",
        "meta_epoch": "2025-12-18T06:00:02.999808",
        "meta_mean_motion": 15.83707608,
        "meta_eccentricity": 8.744e-05,
        "meta_inclination": 53.1553,
        "meta_ra_of_asc_node": 22.6476,
        "meta_arg_of_pericenter": 85.0567,
        "meta_mean_anomaly": 328.0333,
        "meta_ephemeris_type": 0,
        "meta_classification_type": "U",
        "meta_norad_cat_id": 66947,
        "meta_element_set_no": 999,
        "meta_rev_at_epoch": 287,
        "meta_bstar": -0.0075247837,
        "meta_mean_motion_dot": -0.01498575,
        "meta_mean_motion_ddot": 0,
        "tle_line1": "1 66947U 25286Y   25352.25003472 -.01498575  00000+0 -75248-2 0  9993",
        "tle_line2": "2 66947  53.1553  22.6476 0000874  85.0567 328.0333 15.83707608  2877"
      },
      "geometry": {
        "type": "Point",
        "coordinates": [
          20.77331553827838,
          -0.020931855638713217
        ]
      }
    }
  ]
}